{
  "type": "FeatureCollection",
  "features": [
    {
      "type": "Feature",
      "properties": {
        "norad_id": 36283,
        "name": "FENGYUN 1C DEB",
        "group": "fengyun-1c-debris",
        "lat": 78.5901886692508,
        "lon": -91.47264042000663,
        "alt_km": 518.4752312129649,
        "timestamp": "2025-12-22T14:45:57.691388+00:00",
        "meta_object_name": "FENGYUN 1C DEB",
        "meta_object_id": "1999-025DXL",
        "meta_epoch": "2025-12-22T03:14:40.344288",
        "meta_mean_motion": 15.06754341,
        "meta_eccentricity": 0.00665045,
        "meta_inclination": 99.4218,
        "meta_ra_of_asc_node": 323.308,
        "meta_arg_of_pericenter": 20.7587,
        "meta_mean_anomaly": 339.6312,
        "meta_ephemeris_type": 0,
        "meta_classification_type": "U",
        "meta_norad_cat_id": 36283,
        "meta_element_set_no": 999,
        "meta_rev_at_epoch": 66807,
        "meta_bstar": 0.0021831781,
        "meta_mean_motion_dot": 0.00034205,
        "meta_mean_motion_ddot": 0,
        "tle_line1": "1 36283U 99025DXL 25356.13518917  .00034205  00000+0  21832-2 0  9994",
        "tle_line2": "2 36283  99.4218 323.3080 0066504  20.7587 339.6312 15.06754341668076"
      },
      "geometry": {
        "type": "Point",
        "coordinates": [
          -91.47264042000663,
          78.5901886692508
        ]
      }
    },
    {
      "type": "Feature",
      "properties": {
        "norad_id": 36644,
        "name": "FENGYUN 1C DEB",
        "group": "fengyun-1c-debris",
        "lat": -69.7252748928431,
        "lon": -69.8008048446752,
        "alt_km": 1067.3600685435413,
        "timestamp": "2025-12-22T14:45:57.691398+00:00",
        "meta_object_name": "FENGYUN 1C DEB",
        "meta_object_id": "1999-025DXN",
        "meta_epoch": "2025-12-20T03:15:14.582880",
        "meta_mean_motion": 13.5921712,
        "meta_eccentricity": 0.0285778,
        "meta_inclination": 98.4233,
        "meta_ra_of_asc_node": 131.7114,
        "meta_arg_of_pericenter": 160.4918,
        "meta_mean_anomaly": 200.7431,
        "meta_ephemeris_type": 0,
        "meta_classification_type": "U",
        "meta_norad_cat_id": 36644,
        "meta_element_set_no": 999,
        "meta_rev_at_epoch": 61668,
        "meta_bstar": 0.0010197403,
        "meta_mean_motion_dot": 9.49e-06,
        "meta_mean_motion_ddot": 0,
        "tle_line1": "1 36644U 99025DXN 25354.13558545  .00000949  00000+0  10197-2 0  9994",
        "tle_line2": "2 36644  98.4233 131.7114 0285778 160.4918 200.7431 13.59217120616683"
      },
      "geometry": {
        "type": "Point",
        "coordinates": [
          -69.8008048446752,
          -69.7252748928431
        ]
      }
    },
    {
      "type": "Feature",
      "properties": {
        "norad_id": 36647,
        "name": "FENGYUN 1C DEB",
        "group": "fengyun-1c-debris",
        "lat": 19.88293981433339,
        "lon": 131.7077538870457,
        "alt_km": 986.1202742169471,
        "timestamp": "2025-12-22T14:45:57.691409+00:00",
        "meta_object_name": "FENGYUN 1C DEB",
        "meta_object_id": "1999-025DXR",
        "meta_epoch": "2025-12-17T15:22:01.202880",
        "meta_mean_motion": 13.88856712,
        "meta_eccentricity": 0.02401846,
        "meta_inclination": 96.1202,
        "meta_ra_of_asc_node": 130.6548,
        "meta_arg_of_pericenter": 285.5466,
        "meta_mean_anomaly": 71.9303,
        "meta_ephemeris_type": 0,
        "meta_classification_type": "U",
        "meta_norad_cat_id": 36647,
        "meta_element_set_no": 999,
        "meta_rev_at_epoch": 30480,
        "meta_bstar": 0.0022455743,
        "meta_mean_motion_dot": 3.394e-05,
        "meta_mean_motion_ddot": 0,
        "tle_line1": "1 36647U 99025DXR 25351.64029170  .00003394  00000+0  22456-2 0  9995",
        "tle_line2": "2 36647  96.1202 130.6548 0240184 285.5466  71.9303 13.88856712304807"
      },
      "geometry": {
        "type": "Point",
        "coordinates": [
          131.7077538870457,
          19.88293981433339
        ]
      }
    },
    {
      "type": "Feature",
      "properties": {
        "norad_id": 36652,
        "name": "FENGYUN 1C DEB",
        "group": "fengyun-1c-debris",
        "lat": -41.22062023927753,
        "lon": 86.86208905923269,
        "alt_km": 785.7630478586834,
        "timestamp": "2025-12-22T14:45:57.691419+00:00",
        "meta_object_name": "FENGYUN 1C DEB",
        "meta_object_id": "1999-025DXW",
        "meta_epoch": "2025-12-21T11:57:28.108800",
        "meta_mean_motion": 14.22873266,
        "meta_eccentricity": 0.00508017,
        "meta_inclination": 98.941,
        "meta_ra_of_asc_node": 77.8011,
        "meta_arg_of_pericenter": 326.9927,
        "meta_mean_anomaly": 32.8083,
        "meta_ephemeris_type": 0,
        "meta_classification_type": "U",
        "meta_norad_cat_id": 36652,
        "meta_element_set_no": 999,
        "meta_rev_at_epoch": 64449,
        "meta_bstar": 0.0012965262,
        "meta_mean_motion_dot": 2.906e-05,
        "meta_mean_motion_ddot": 0,
        "tle_line1": "1 36652U 99025DXW 25355.49824200  .00002906  00000+0  12965-2 0  9997",
        "tle_line2": "2 36652  98.9410  77.8011 0050801 326.9927  32.8083 14.22873266644493"
      },
      "geometry": {
        "type": "Point",
        "coordinates": [
          86.86208905923269,
          -41.22062023927753
        ]
      }
    },
    {
      "type": "Feature",
      "properties": {
        "norad_id": 36657,
        "name": "FENGYUN 1C DEB",
        "group": "fengyun-1c-debris",
        "lat": -36.13908359351193,
        "lon": -38.00063774216058,
        "alt_km": 755.9364965273189,
        "timestamp": "2025-12-22T14:45:57.691430+00:00",
        "meta_object_name": "FENGYUN 1C DEB",
        "meta_object_id": "1999-025DYB",
        "meta_epoch": "2025-12-21T16:29:00.575808",
        "meta_mean_motion": 14.65578077,
        "meta_eccentricity": 0.01055392,
        "meta_inclination": 99.4132,
        "meta_ra_of_asc_node": 147.8952,
        "meta_arg_of_pericenter": 39.9824,
        "meta_mean_anomaly": 320.9086,
        "meta_ephemeris_type": 0,
        "meta_classification_type": "U",
        "meta_norad_cat_id": 36657,
        "meta_element_set_no": 999,
        "meta_rev_at_epoch": 66387,
        "meta_bstar": 0.0004246714,
        "meta_mean_motion_dot": 2.435e-05,
        "meta_mean_motion_ddot": 0,
        "tle_line1": "1 36657U 99025DYB 25355.68681222  .00002435  00000+0  42467-3 0  9996",
        "tle_line2": "2 36657  99.4132 147.8952 0105539  39.9824 320.9086 14.65578077663879"
      },
      "geometry": {
        "type": "Point",
        "coordinates": [
          -38.00063774216058,
          -36.13908359351193
        ]
      }
    },
    {
      "type": "Feature",
      "properties": {
        "norad_id": 36659,
        "name": "FENGYUN 1C DEB",
        "group": "fengyun-1c-debris",
        "lat": -47.47733375255683,
        "lon": 11.556356725870346,
        "alt_km": 955.7566148817987,
        "timestamp": "2025-12-22T14:45:57.691440+00:00",
        "meta_object_name": "FENGYUN 1C DEB",
        "meta_object_id": "1999-025DYD",
        "meta_epoch": "2025-12-18T07:09:04.054176",
        "meta_mean_motion": 13.87384482,
        "meta_eccentricity": 0.01357919,
        "meta_inclination": 99.8541,
        "meta_ra_of_asc_node": 356.081,
        "meta_arg_of_pericenter": 60.2917,
        "meta_mean_anomaly": 301.1674,
        "meta_ephemeris_type": 0,
        "meta_classification_type": "U",
        "meta_norad_cat_id": 36659,
        "meta_element_set_no": 999,
        "meta_rev_at_epoch": 60502,
        "meta_bstar": 0.00061832075,
        "meta_mean_motion_dot": 7.35e-06,
        "meta_mean_motion_ddot": 0,
        "tle_line1": "1 36659U 99025DYD 25352.29796359  .00000735  00000+0  61832-3 0  9998",
        "tle_line2": "2 36659  99.8541 356.0810 0135791  60.2917 301.1674 13.87384482605024"
      },
      "geometry": {
        "type": "Point",
        "coordinates": [
          11.556356725870346,
          -47.47733375255683
        ]
      }
    },
    {
      "type": "Feature",
      "properties": {
        "norad_id": 36664,
        "name": "FENGYUN 1C DEB",
        "group": "fengyun-1c-debris",
        "lat": -63.57983874911429,
        "lon": -176.8209509743469,
        "alt_km": 963.7685853986759,
        "timestamp": "2025-12-22T14:45:57.691451+00:00",
        "meta_object_name": "FENGYUN 1C DEB",
        "meta_object_id": "1999-025DYJ",
        "meta_epoch": "2025-12-20T07:25:54.989472",
        "meta_mean_motion": 14.1795977,
        "meta_eccentricity": 0.01735704,
        "meta_inclination": 98.6034,
        "meta_ra_of_asc_node": 18.6846,
        "meta_arg_of_pericenter": 78.0372,
        "meta_mean_anomaly": 284.0202,
        "meta_ephemeris_type": 0,
        "meta_classification_type": "U",
        "meta_norad_cat_id": 36664,
        "meta_element_set_no": 999,
        "meta_rev_at_epoch": 63858,
        "meta_bstar": 7.0633235e-05,
        "meta_mean_motion_dot": 1.26e-06,
        "meta_mean_motion_ddot": 0,
        "tle_line1": "1 36664U 99025DYJ 25354.30966423  .00000126  00000+0  70633-4 0  9993",
        "tle_line2": "2 36664  98.6034  18.6846 0173570  78.0372 284.0202 14.17959770638588"
      },
      "geometry": {
        "type": "Point",
        "coordinates": [
          -176.8209509743469,
          -63.57983874911429
        ]
      }
    }
  ]
}